OBJECT_NAME,OBJECT_ID,EPOCH,MEAN_MOTION,ECCENTRICITY,INCLINATION,RA_OF_ASC_NODE,ARG_OF_PERICENTER,MEAN_ANOMALY,EPHEMERIS_TYPE,CLASSIFICATION_TYPE,NORAD_CAT_ID,ELEMENT_SET_NO,REV_AT_EPOCH,BSTAR,MEAN_MOTION_DOT,MEAN_MOTION_DDOT
TIANMU-1 20,2023-208B,2026-06-27T21:36:12.705120,15.32919791,.00055691,97.4455,295.9020,286.9451,73.1180,0,U,58661,999,13906,.24887761E-3,.7837E-4,0
TIANMU-1 21,2023-208C,2026-06-27T22:29:56.144832,15.35261898,.00056623,97.4514,298.6669,276.2685,83.7913,0,U,58662,999,13921,.28496953E-3,.9681E-4,0
TIANMU-1 22,2023-208D,2026-06-27T22:06:51.605568,15.31202646,.00023548,97.4509,295.2038,315.1824,44.9226,0,U,58663,999,13897,.24768066E-3,.7387E-4,0
TIANMU-1 15,2024-004A,2026-06-27T23:26:30.976224,15.26817530,.00056566,97.4663,5.1685,306.8734,53.1986,0,U,58700,999,13742,.20772182E-3,.5401E-4,0
TIANMU-1 16,2024-004B,2026-06-27T23:12:51.739200,15.26854342,.00047931,97.4611,4.3853,326.5533,33.5403,0,U,58701,999,13742,.20121969E-3,.5235E-4,0
TIANMU-1 17,2024-004C,2026-06-27T22:51:55.639584,15.26852857,.0004463,97.4638,4.8597,334.6137,25.4882,0,U,58702,999,13741,.20563422E-3,.5351E-4,0
TIANMU-1 18,2024-004D,2026-06-27T22:16:08.503680,15.26772405,.00035854,97.4656,5.0958,311.7988,48.2944,0,U,58703,999,13741,.21934351E-3,.5699E-4,0
INSAT-3DS,2024-033A,2026-06-27T19:05:46.866912,1.00270531,.00014893,0.0631,99.7881,346.8209,197.8056,0,U,58990,999,4717,0,-.144E-5,0
METEOR-M2 4,2024-039A,2026-06-27T22:41:53.776320,14.22430586,.00078482,98.7014,138.1087,132.1771,228.0075,0,U,59051,999,12079,.21026498E-4,.3E-7,0
GOES 19,2024-119A,2026-06-27T22:24:55.844352,1.00270954,.00005857,0.0116,102.6682,39.9011,34.5039,0,U,60133,999,707,0,-.237E-5,0
MTG-S1,2025-143A,2026-06-27T22:46:10.734240,1.00271994,.00027489,0.5946,341.2382,268.0372,7.8563,0,U,64723,999,352,0,.4E-7,0
METOP-SGA1,2025-172A,2026-06-27T22:07:23.416320,14.19816649,.00080443,98.6642,238.4219,22.7342,337.4189,0,U,65159,999,4531,.40703504E-4,.43E-6,0
FENGYUN 3H,2025-219A,2026-06-27T19:44:13.808256,14.19922206,.00014955,98.6770,119.3848,69.5812,290.5525,0,U,65815,999,3889,.39371424E-4,.4E-6,0
