TIANMU-1 20             
1 58661U 23208B   26178.90014705  .00007837  00000+0  24888-3 0  9998
2 58661  97.4455 295.9020 0005569 286.9451  73.1180 15.32919791139065
TIANMU-1 21             
1 58662U 23208C   26178.93745538  .00009681  00000+0  28497-3 0  9996
2 58662  97.4514 298.6669 0005662 276.2685  83.7913 15.35261898139215
TIANMU-1 22             
1 58663U 23208D   26178.92143062  .00007387  00000+0  24768-3 0  9998
2 58663  97.4509 295.2038 0002354 315.1824  44.9226 15.31202646138976
TIANMU-1 15             
1 58700U 24004A   26178.97674741  .00005401  00000+0  20772-3 0  9999
2 58700  97.4663   5.1685 0005656 306.8734  53.1986 15.26817530137422
TIANMU-1 16             
1 58701U 24004B   26178.96726550  .00005235  00000+0  20122-3 0  9999
2 58701  97.4611   4.3853 0004793 326.5533  33.5403 15.26854342137429
TIANMU-1 17             
1 58702U 24004C   26178.95272731  .00005351  00000+0  20563-3 0  9994
2 58702  97.4638   4.8597 0004463 334.6137  25.4882 15.26852857137412
TIANMU-1 18             
1 58703U 24004D   26178.92787620  .00005699  00000+0  21934-3 0  9998
2 58703  97.4656   5.0958 0003585 311.7988  48.2944 15.26772405137413
INSAT-3DS               
1 58990U 24033A   26178.79568133 -.00000144  00000+0  00000+0 0  9997
2 58990   0.0631  99.7881 0001489 346.8209 197.8056  1.00270531 47173
METEOR-M2 4             
1 59051U 24039A   26178.94576130  .00000003  00000+0  21026-4 0  9994
2 59051  98.7014 138.1087 0007848 132.1771 228.0075 14.22430586120796
GOES 19                 
1 60133U 24119A   26178.93397968 -.00000237  00000+0  00000+0 0  9999
2 60133   0.0116 102.6682 0000585  39.9011  34.5039  1.00270954  7075
MTG-S1                  
1 64723U 25143A   26178.94873535  .00000004  00000+0  00000+0 0  9997
2 64723   0.5946 341.2382 0002748 268.0372   7.8563  1.00271994  3522
METOP-SGA1              
1 65159U 25172A   26178.92179880  .00000043  00000+0  40704-4 0  9996
2 65159  98.6642 238.4219 0008044  22.7342 337.4189 14.19816649 45315
FENGYUN 3H              
1 65815U 25219A   26178.82238204  .00000040  00000+0  39371-4 0  9997
2 65815  98.6770 119.3848 0001495  69.5812 290.5525 14.19922206 38890
